NORAD_CAT_ID,OBJECT_NAME,OBJECT_TYPE,EPOCH,MEAN_MOTION,ECCENTRICITY,INCLINATION,RA_OF_ASC_NODE,ARG_OF_PERICENTER,MEAN_ANOMALY,BSTAR,MEAN_MOTION_DOT,MEAN_MOTION_DDOT,TLE_LINE0,TLE_LINE1,TLE_LINE2,SEMIMAJOR_AXIS,PERIOD,APOGEE,PERIGEE,DECAYED
53427.0,STARLINK-4541,PAYLOAD,2022-08-27 14:00:01,15.732173499999998,9.37e-05,53.2204,161.9715,87.6649,188.658,8.419100000000001e-05,0.0001122,0.0,0 STARLINK-4541,1 53427U 22097AR  22239.58334491  .00011220  00000-0  84191-4 0  9999,2 53427  53.2204 161.9715 0000937  87.6649 188.6580 15.73217350  1302,6727.846,91.532,350.341,349.08,0.0
53427.0,STARLINK-4541,PAYLOAD,2022-08-27 20:00:01,15.73240921,0.0001131,53.2207,160.7344,90.1336,162.9038,-0.00038649,-0.00054603,0.0,0 STARLINK-4541,1 53427U 22097AR  22239.83334491 -.00054603  00000-0 -38649-3 0  9997,2 53427  53.2207 160.7344 0001131  90.1336 162.9038 15.73240921  3203,6727.779,91.531,350.404,348.8830000000001,0.0
53427.0,STARLINK-4541,PAYLOAD,2022-08-27 22:00:00,15.73222252,0.0001147999999999,53.2207,160.3226,86.8293,278.4553,-0.00026503,-0.00037683,0.0,0 STARLINK-4541,1 53427U 22097AR  22239.91667824 -.00037683  00000-0 -26503-3 0  9990,2 53427  53.2207 160.3226 0001148  86.8293 278.4553 15.73222252  1301,6727.831999999999,91.532,350.469,348.9240000000001,0.0
53427.0,STARLINK-4541,PAYLOAD,2022-08-28 06:00:00,15.73207931,0.0001149999999999,53.2202,158.6747,76.3769,17.8579,0.00031711,0.00044133,0.0,0 STARLINK-4541,1 53427U 22097AR  22240.25001157  .00044133  00000-0  31711-3 0  9993,2 53427  53.2202 158.6747 0001150  76.3769  17.8579 15.73207931  3277,6727.873000000001,91.533,350.511,348.964,0.0
53427.0,STARLINK-4541,PAYLOAD,2022-08-28 14:00:01,15.73151072,8.590000000000001e-05,53.22,157.0228,89.1095,94.0801,0.00052967,0.00074217,0.0,0 STARLINK-4541,1 53427U 22097AR  22240.58334491  .00074217  00000-0  52967-3 0  9991,2 53427  53.2200 157.0228 0000859  89.1095  94.0801 15.73151072  3326,6728.035,91.536,350.478,349.32199999999995,0.0
53427.0,STARLINK-4541,PAYLOAD,2022-08-28 22:00:00,15.73232619,0.0001004,53.2202,155.3751,88.2015,183.8687,-0.00050606,-0.0007113999999999,0.0,0 STARLINK-4541,1 53427U 22097AR  22240.91667824 -.00071140  00000-0 -50606-3 0  9999,2 53427  53.2202 155.3751 0001004  88.2015 183.8687 15.73232619  1307,6727.802,91.531,350.343,348.992,0.0
53427.0,STARLINK-4541,PAYLOAD,2022-08-29 06:00:02,15.73152557,0.0001133,53.2199,153.7269,77.2672,283.8125,0.00037432,0.00052133,0.0,0 STARLINK-4541,1 53427U 22097AR  22241.25002315  .00052133  00000-0  37432-3 0  9996,2 53427  53.2199 153.7269 0001133  77.2672 283.8125 15.73152557  3423,6728.03,91.536,350.658,349.1330000000001,0.0
53427.0,STARLINK-4541,PAYLOAD,2022-08-29 14:00:01,15.73156463,0.0001057,53.2203,152.0757,91.3828,358.5876,0.00053316,0.00074733,0.0,0 STARLINK-4541,1 53427U 22097AR  22241.58334491  .00074733  00000-0  53316-3 0  9994,2 53427  53.2203 152.0757 0001057  91.3828 358.5876 15.73156463  1306,6728.019,91.536,350.595,349.173,0.0
53427.0,STARLINK-4541,PAYLOAD,2022-08-29 16:00:00,15.73170823,0.0001088,53.2202,151.6627,92.4692,109.728,0.00062594,0.0008804,0.0,0 STARLINK-4541,1 53427U 22097AR  22241.66667824  .00088040  00000-0  62594-3 0  9996,2 53427  53.2202 151.6627 0001088  92.4692 109.7280 15.73170823  3494,6727.978,91.535,350.575,349.111,0.0
53427.0,STARLINK-4541,PAYLOAD,2022-08-29 22:00:00,15.732483300000002,0.0001105,53.2205,150.42700000000005,87.4835,91.3987,-0.00024898,-0.00035487,0.0,0 STARLINK-4541,1 53427U 22097AR  22241.91667824 -.00035487  00000-0 -24898-3 0  9998,2 53427  53.2205 150.4270 0001105  87.4835  91.3987 15.73248330  1308,6727.757,91.53,350.366,348.879,0.0
53427.0,STARLINK-4541,PAYLOAD,2022-08-30 06:00:00,15.73181134,9.66e-05,53.22,148.7786,73.8987,193.9521,0.00025784,0.0003569,0.0,0 STARLINK-4541,1 53427U 22097AR  22242.25001157  .00035690  00000-0  25784-3 0  9996,2 53427  53.2200 148.7786 0000966  73.8987 193.9521 15.73181134  3589,6727.949000000001,91.534,350.464,349.164,0.0
53427.0,STARLINK-4541,PAYLOAD,2022-08-30 14:00:01,15.73206224,9.31e-05,53.2198,147.1273,92.0606,264.7178,-0.00011582,-0.00016845,0.0,0 STARLINK-4541,1 53427U 22097AR  22242.58334491 -.00016845  00000-0 -11582-3 0  9996,2 53427  53.2198 147.1273 0000931  92.0606 264.7178 15.73206224  1303,6727.877,91.533,350.369,349.116,0.0
53427.0,STARLINK-4541,PAYLOAD,2022-08-30 22:00:00,15.73186734,0.0001107999999999,53.2198,145.4792,87.1939,358.5095,2.1938e-05,2.458e-05,0.0,0 STARLINK-4541,1 53427U 22097AR  22242.91667824  .00002458  00000-0  21938-4 0  9992,2 53427  53.2198 145.4792 0001108  87.1939 358.5095 15.73186734  1304,6727.933000000001,91.534,350.543,349.05300000000005,0.0
53427.0,STARLINK-4541,PAYLOAD,2022-08-31 14:00:01,15.73153513,0.0001244,53.2198,142.1791,91.9623,171.6084,0.00050501,0.00070711,0.0,0 STARLINK-4541,1 53427U 22097AR  22243.58334491  .00070711  00000-0  50501-3 0  9991,2 53427  53.2198 142.1791 0001244  91.9623 171.6084 15.73153513  1302,6728.028,91.536,350.73,349.056,0.0
53427.0,STARLINK-4541,PAYLOAD,2022-08-31 22:00:00,15.73212591,0.0001337,53.22,140.5309,86.6874,265.7778,3.5996e-05,4.437e-05,0.0,0 STARLINK-4541,1 53427U 22097AR  22243.91667824  .00004437  00000-0  35996-4 0  9991,2 53427  53.2200 140.5309 0001337  86.6874 265.7778 15.73212591  1302,6727.859,91.532,350.624,348.825,0.0
53427.0,STARLINK-4541,PAYLOAD,2022-09-01 06:00:00,15.73237036,0.0001229,53.2196,138.8821,78.8596,2.5355,-1.5445999999999994e-05,-2.791e-05,0.0,0 STARLINK-4541,1 53427U 22097AR  22244.25001157 -.00002791  00000-0 -15446-4 0  9991,2 53427  53.2196 138.8821 0001229  78.8596   2.5355 15.73237036  3906,6727.79,91.531,350.481,348.82800000000015,0.0
53427.0,STARLINK-4541,PAYLOAD,2022-09-01 14:00:01,15.73180499,9.7e-05,53.2194,137.2307,93.5817,76.8637,0.00024958,0.00034521,0.0,0 STARLINK-4541,1 53427U 22097AR  22244.58335648  .00034521  00000-0  24958-3 0  9993,2 53427  53.2194 137.2307 0000970  93.5817  76.8637 15.73180499  1307,6727.951,91.534,350.468,349.163,0.0
53427.0,STARLINK-4541,PAYLOAD,2022-09-01 22:00:00,15.73210958,9.71e-05,53.2195,135.5831,85.8328,173.4651,9.5444e-05,0.00012802,0.0,0 STARLINK-4541,1 53427U 22097AR  22244.91667824  .00012802  00000-0  95444-4 0  9991,2 53427  53.2195 135.5831 0000971  85.8328 173.4651 15.73210958  4007,6727.864000000001,91.533,350.38199999999995,349.076,0.0
53427.0,STARLINK-4541,PAYLOAD,2022-09-02 14:00:01,15.73183803,0.000127,53.2197,132.2825,92.9208,344.2767,-0.00028379,-0.0004022999999999,0.0,0 STARLINK-4541,1 53427U 22097AR  22245.58334491 -.00040230  00000-0 -28379-3 0  9996,2 53427  53.2197 132.2825 0001270  92.9208 344.2767 15.73183803  1309,6727.941,91.534,350.661,348.952,0.0
53427.0,STARLINK-4541,PAYLOAD,2022-09-02 22:00:01,15.73153024,0.0001463,53.2198,130.6347,85.9305,80.2319,9.0585e-05,0.00012086,0.0,0 STARLINK-4541,1 53427U 22097AR  22245.91668981  .00012086  00000-0  90585-4 0  9992,2 53427  53.2198 130.6347 0001463  85.9305  80.2319 15.73153024  1307,6728.029,91.536,350.87800000000016,348.91,0.0
53427.0,STARLINK-4541,PAYLOAD,2022-09-03 06:00:00,15.73184207,0.0001364,53.2196,128.9856,82.6089,172.3596,0.0002136,0.00029442,0.0,0 STARLINK-4541,1 53427U 22097AR  22246.25001157  .00029442  00000-0  21360-3 0  9994,2 53427  53.2196 128.9856 0001364  82.6089 172.3596 15.73184207  4213,6727.94,91.534,350.723,348.88800000000015,0.0
53427.0,STARLINK-4541,PAYLOAD,2022-09-03 14:00:01,15.73185082,0.0001337,53.2197,127.3346,94.2453,249.6506,0.00068119,0.00096018,0.0,0 STARLINK-4541,1 53427U 22097AR  22246.58334491  .00096018  00000-0  68119-3 0  9996,2 53427  53.2197 127.3346 0001337  94.2453 249.6506 15.73185082  1303,6727.938,91.534,350.702,348.903,0.0
53427.0,STARLINK-4541,PAYLOAD,2022-09-03 22:00:00,15.7328394,0.0001236,53.2192,125.6872,86.3915,346.4493,-0.00062438,-0.00087652,0.0,0 STARLINK-4541,1 53427U 22097AR  22246.91667824 -.00087652  00000-0 -62438-3 0  9996,2 53427  53.2192 125.6872 0001236  86.3915 346.4493 15.73283940  1309,6727.656,91.528,350.352,348.689,0.0
53427.0,STARLINK-4541,PAYLOAD,2022-09-04 14:00:01,15.7321489,8.78e-05,53.2181,122.3862,97.6892,153.1786,0.0001132,0.00015306,0.0,0 STARLINK-4541,1 53427U 22097AR  22247.58335648  .00015306  00000-0  11320-3 0  9995,2 53427  53.2181 122.3862 0000878  97.6892 153.1786 15.73214890  4422,6727.853,91.532,350.30800000000005,349.12699999999984,0.0
53427.0,STARLINK-4541,PAYLOAD,2022-09-04 20:00:01,15.73248947,9.45e-05,53.2185,121.1506,87.6994,139.8119,-0.00065703,-0.00092015,0.0,0 STARLINK-4541,1 53427U 22097AR  22247.83334491 -.00092015  00000-0 -65703-3 0  9996,2 53427  53.2185 121.1506 0000945  87.6994 139.8119 15.73248947  1300,6727.755999999999,91.53,350.256,348.985,0.0
53427.0,STARLINK-4541,PAYLOAD,2022-09-05 14:00:01,15.73241085,0.0001264,53.2184,117.4382,95.5849,62.1404,-0.00019549,-0.00028012,0.0,0 STARLINK-4541,1 53427U 22097AR  22248.58334491 -.00028012  00000-0 -19549-3 0  9992,2 53427  53.2184 117.4382 0001264  95.5849  62.1404 15.73241085  1302,6727.778,91.531,350.49300000000005,348.793,0.0
53427.0,STARLINK-4541,PAYLOAD,2022-09-05 20:00:01,15.73233647,0.0001223,53.2183,116.2026,87.6359,46.8189,-0.00069578,-0.00097285,0.0,0 STARLINK-4541,1 53427U 22097AR  22248.83334491 -.00097285  00000-0 -69578-3 0  9995,2 53427  53.2183 116.2026 0001223  87.6359  46.8189 15.73233647  4628,6727.799,91.531,350.487,348.841,0.0
53427.0,STARLINK-4541,PAYLOAD,2022-09-05 22:00:00,15.73205837,0.0001278,53.2182,115.7908,83.1556,163.5415,-0.00048447,-0.0006808,0.0,0 STARLINK-4541,1 53427U 22097AR  22248.91667824 -.00068080  00000-0 -48447-3 0  9996,2 53427  53.2182 115.7908 0001278  83.1556 163.5415 15.73205837  1301,6727.879,91.533,350.603,348.884,0.0
53427.0,STARLINK-4541,PAYLOAD,2022-09-06 06:00:00,15.731259,0.0001226,53.2181,114.1411,85.2061,250.3313,-0.00014001,-0.00020159,0.0,0 STARLINK-4541,1 53427U 22097AR  22249.25001157 -.00020159  00000-0 -14001-3 0  9999,2 53427  53.2181 114.1411 0001226  85.2061 250.3313 15.73125900  4687,6728.106,91.537,350.796,349.147,0.0
